StoreName,StoreType,StoreOpeningDate,Address,City,State,Country,Region,Manager Name
The Chic Haven,Exclusive,1972-06-12,604 Clark Knoll Brownland  OK 68071,East Johnstad,South Carolina,Guinea,South,Gabrielle
The Chic Shop,Exclusive,2010-09-18,28903 Paul Camp Apt. 894 West Natasha  AR 57762,New Tracey,Michigan,Sri Lanka,North,Elizabeth
The Polished Merchant,Outlet Stores,2017-05-03,2586 Jason Ports Suite 896 Gouldview  WY 67332,Lake Amy,Rhode Island,Mauritius,South,Luis
The Eclectic Merchant,SMB,2015-12-02,0940 Timothy Freeway Apt. 543 East Josephborough  GA 09833,Sheliaport,Idaho,Christmas Island,East,Marcus
The Artisan Nook,Outlet Stores,2002-08-31,USNS Young FPO AP 80517,North Rebecca,Alaska,Cape Verde,East,Brian
The Trendy Perfection,MBO,2005-06-23,PSC 5904  Box 7275 APO AP 61960,Katiechester,Minnesota,Brunei Darussalam,North,Steve
The Timeless Reflections,MBO,2013-06-28,95545 Osborn Spring East Daniel  WI 02385,North Thomas,New Hampshire,Indonesia,East,Travis
The Purely Corner,Exclusive,1976-03-14,4632 Nixon Gateway Apt. 727 East Johnbury  NY 33124,East Antoniofurt,Kentucky,Mozambique,North,Justin
The Modern Emporium,Exclusive,2017-08-07,95963 David Cove Suite 054 Grossmouth  MO 49938,Sarahshire,Hawaii,Malta,North,Diana
The Cozy Avenue,Outlet Stores,1980-09-22,1196 Rowe Street Darleneland  CO 39823,Cartermouth,Kansas,San Marino,North,Jamie
The Modern Reflections,MBO,1995-01-23,86615 Angelica Islands South Jennifershire  VI 54028,Johnsonmouth,Rhode Island,United States of America,North,Heather
The Artisan Treasures,MBO,1996-06-19,576 Conway Isle Suite 840 West Lisaburgh  KY 65402,South Anthony,Kentucky,Latvia,West,Johnny
The Happy Haven,SMB,1999-10-17,PSC 3464  Box 5573 APO AA 49832,South Toddport,Kansas,Central African Republic,West,Kaitlyn
The Serene Sanctuary,SMB,2017-07-20,38005 Bowen Streets Apt. 868 Lake Christopher  IL 84230,Santiagofurt,Ohio,Hungary,South,Eddie
The Dapper Elegance,Outlet Stores,1981-06-07,436 Mary Center Stephanieburgh  WI 85921,Munozton,Illinois,Malaysia,East,Andre
The Modern Oasis,MBO,1994-08-06,678 Carlos Forest Apt. 908 Stephanieside  NE 34734,West Morganberg,Colorado,Indonesia,East,Jessica
The Blissful Shop,Outlet Stores,1984-04-15,8530 Allison Lane East Christopher  DE 95711,Mariachester,Connecticut,Argentina,East,Crystal
The Harmony Sanctuary,SMB,1995-06-28,52258 Bradley Causeway South Charles  OH 84952,New Stevenstad,West Virginia,Norfolk Island,North,Vickie
The Enchanted Hub,Outlet Stores,2024-04-06,059 Harris Harbor Walkermouth  ME 60232,North Danielfort,Wyoming,Lao People's Democratic Republic,South,Joseph
The Polished Marketplace,Exclusive,2018-08-02,1491 Philip Fall Suite 543 Moorestad  DE 82667,Wilsontown,New Mexico,United States Minor Outlying Islands,South,David
The Unique Merchant,SMB,1998-12-26,5217 Sabrina Wall Mayershire  TX 47949,New Jocelyn,North Carolina,Syrian Arab Republic,West,Cesar
The Majestic Reflections,SMB,1990-08-08,PSC 9426  Box 0502 APO AA 37092,East Donnachester,Wyoming,Algeria,South,Susan
The Rustic Corner,SMB,2018-04-26,284 Ware Rest New Michaeltown  KY 17481,South Sharichester,Massachusetts,Antigua and Barbuda,West,Anne
The Polished Perfection,Exclusive,2006-11-17,970 Manning Pine Apt. 252 East Jaimechester  IN 36734,Snowshire,Mississippi,Solomon Islands,South,Christopher
The Classy Marvels,Exclusive,1999-06-11,8515 Christine Branch Suite 355 Ryanfort  AL 29621,New Michael,South Carolina,Bangladesh,North,Chris
The Majestic Enclave,Outlet Stores,2022-07-17,Unit 4601 Box 4893 DPO AA 22135,Clarkmouth,Kansas,Russian Federation,South,Madison
The Golden Deals,Outlet Stores,1971-08-09,4915 Meagan Circles Apt. 703 Lake Michael  FM 62010,Theresahaven,Virginia,Jersey,West,Bradley
The Purely Nook,Outlet Stores,1975-06-27,8223 Cynthia Summit Apt. 127 South Amy  TX 70610,East Joshuaburgh,Vermont,Russian Federation,South,Lisa
The Happy Vault,SMB,1992-04-08,4510 Perkins Oval Lake Taylortown  KY 58980,Craigfurt,Massachusetts,Norway,South,William
The Dapper Vault,Outlet Stores,1978-05-11,USNV Higgins FPO AP 44704,Frankfurt,Vermont,Norfolk Island,South,Keith
The Vintage Perfection,MBO,1971-08-08,9563 Kelly Trail Suite 395 Steinview  MP 57252,East Marystad,Georgia,Egypt,South,Jamie
The Modern Closet,MBO,1988-12-22,2951 Fernandez Junction Rodgersstad  TN 10025,Westland,Colorado,Mali,North,Isaac
The Radiant Loft,Exclusive,1980-12-21,USNS Galvan FPO AE 46067,West Brittanyborough,North Carolina,Cameroon,North,Jenny
The Polished Loft,Exclusive,2020-02-01,003 Jason Stream North Krystalshire  MP 73366,Oconnorview,California,United Arab Emirates,North,Paul
The Enchanted Sanctuary,Exclusive,1993-05-10,971 Carl Harbors Port Matthew  DE 86695,Carmenmouth,Missouri,Netherlands,West,Angel
The Harmony Avenue,SMB,2013-07-13,891 Jeff Curve South Adam  VA 41290,Port Carolynborough,New Hampshire,Germany,East,Jim
The Cozy Haven,Outlet Stores,1994-09-04,4726 Espinoza Club Suite 066 North Derrickfort  WI 87179,Deniseside,North Carolina,Belize,North,Allen
The Unique Boutique,MBO,2013-08-02,8046 Annette Harbors Suite 923 South Emilyburgh  ID 67417,West Kyle,North Carolina,Honduras,West,Brian
The Dapper Closet,Outlet Stores,2021-05-03,650 Austin Branch Schwartzport  MH 55997,Christopherstad,Nevada,Japan,East,Eric
The Happy Marvels,SMB,2008-07-23,77383 Tracy Walk Apt. 304 Colemouth  FM 81503,South Angela,Arkansas,Saint Martin,South,Edward
The Happy Marketplace,Outlet Stores,2018-08-06,51577 Mariah Track Suite 318 Johnsonfurt  VT 10141,Port Melissamouth,Michigan,Mali,South,William
The Cozy Creations,Outlet Stores,1999-02-07,812 Harris Meadow Apt. 178 Fergusonport  UT 44761,Carrollmouth,Connecticut,Germany,West,Ricky
The Dapper Marvels,Outlet Stores,2022-09-12,53635 Gamble Causeway Apt. 512 Richardmouth  ID 39997,New Sydneyside,New York,Turkey,North,Susan
The Golden Hub,Exclusive,2002-06-21,9831 Steven Place Lake Zacharyport  IL 79655,Port Kaylamouth,Georgia,Luxembourg,South,Cole
The Artisan Avenue,MBO,2015-08-04,9409 Lisa Forges North Donald  DE 52570,Lake James,Illinois,Chile,West,Ashley
The Polished Reflections,Outlet Stores,1971-04-19,28191 Melissa Circles Fitzgeraldstad  NC 75877,West Tommy,Idaho,Austria,North,Lori
The Urban Creations,MBO,1980-09-11,203 Zachary Port Masonfurt  MI 32422,Port Angela,Oregon,Monaco,West,Mary
The Artisan Treasures,SMB,1980-08-11,5984 Sanford Brooks Apt. 910 Jennifermouth  GA 26426,Cohenstad,Oklahoma,North Macedonia,West,Sara
The Rustic Closet,Outlet Stores,2019-10-09,6255 Green Plains Susanfort  NC 21749,Parksside,New Jersey,Belarus,East,Barbara
The Timeless Marketplace,Exclusive,2011-11-04,2575 Williams Crossing East Chadbury  ME 00643,Carlsonshire,Massachusetts,Papua New Guinea,North,Christine
The Trendy Sanctuary,Outlet Stores,2010-02-19,790 Watkins Vista East Jamesside  WV 52539,New Christophermouth,Oklahoma,Isle of Man,South,William
The Whimsy Enclave,Exclusive,1983-07-11,888 Cody Trail Suite 854 Kristenstad  AL 79299,Kimberg,Tennessee,Indonesia,North,Keith
The Purely Avenue,SMB,1996-10-28,256 Lynch Rapid Apt. 941 East Brandon  ID 20598,West Emilymouth,Arkansas,San Marino,North,Jacqueline
The Polished Oasis,MBO,2024-04-18,75035 Lee Circle Suite 912 Jessicaland  IA 99302,South Alyssaport,Alabama,Belgium,North,Steven
The Purely Loft,Exclusive,2008-08-02,91354 Blake Inlet Daniellechester  CT 51711,East Daniel,Connecticut,Nauru,South,Michael
The Enchanted Nook,SMB,2007-11-12,92106 Roy Isle Jacksonmouth  ID 37462,Jenniferburgh,North Dakota,Saint Kitts and Nevis,West,Angela
The Chic Oasis,SMB,2017-07-01,995 Randall Turnpike Amandamouth  PW 94212,Thompsonburgh,Washington,Gabon,North,Catherine
The Classy Marketplace,Exclusive,2003-07-21,2508 Robinson Mission Apt. 908 New Brent  UT 99001,Port Sandra,Maine,Tajikistan,North,David
The Luxe Closet,SMB,2016-08-15,76011 Gregory Alley New Brianmouth  VI 20830,North Stevenberg,Pennsylvania,Saint Lucia,West,Jeremy
The Elegant Marketplace,MBO,2001-11-07,9560 Miguel Tunnel Suite 807 Bradleytown  HI 08691,Lake Teresa,Hawaii,Czech Republic,South,Charles
The Timeless Marvels,Exclusive,1982-08-27,Unit 0929 Box 2283 DPO AP 52880,Port Ethanhaven,Illinois,Iran,South,Cassie
The Elegant Marvels,SMB,1999-02-17,0100 Barbara Port Apt. 778 Lake Keith  LA 34517,Lake Timothy,Alaska,Puerto Rico,East,Raymond
The Trendy Elegance,Exclusive,2001-10-22,16911 Blake Bypass East Deborah  MO 90107,West Nicole,Ohio,Ireland,South,Frank
The Dapper Loft,Outlet Stores,2022-06-22,089 Dean Cliffs West Lisa  VI 62198,South Reginaldview,West Virginia,Spain,East,Sherry
The Majestic Emporium,Exclusive,2020-10-13,373 Nelson Stream Apt. 492 West Ashleymouth  NV 88157,South Jamesfort,Nebraska,Congo,West,Chris
The Timeless Shoppe,Outlet Stores,1999-06-15,4284 Hull Squares Suite 645 East Melissa  MD 83880,South Michaelton,Ohio,Bahrain,West,Anthony
The Chic Finds,Outlet Stores,1995-02-06,153 Rodriguez Neck West Jack  VI 47613,West Sarah,Connecticut,Gibraltar,West,Samuel
The Majestic Treasures,MBO,2017-06-11,4367 Michael Cliff Alejandroburgh  NE 85272,New Jamestown,Connecticut,Germany,South,Joshua
The Urban Boutique,SMB,2024-09-22,06348 Julie Harbors Harrisstad  MP 27882,North Patrick,Mississippi,Jamaica,East,Bianca
The Timeless Marketplace,SMB,2009-09-16,409 Griffin Ramp Wilsonland  MD 02709,Shirleymouth,South Dakota,Cuba,South,Patricia
The Rustic Enclave,Outlet Stores,2017-12-22,2387 Samuel Spur Suite 908 Rollinston  RI 95237,East Laurashire,New York,Namibia,South,Teresa
The Majestic Shoppe,MBO,2013-08-24,648 Charles Village Suite 090 Lake Zachary  NV 16103,Moranhaven,Louisiana,Guam,South,Connor
The Majestic Reflections,Exclusive,2002-12-25,67541 John Radial Apt. 643 Jasonview  WY 58713,East James,New Hampshire,Colombia,North,Michael
The Luxe Shop,Exclusive,1978-10-05,9901 Reid Spring Suite 749 Heatherville  ID 04035,East Gina,Tennessee,Brazil,West,William
The Golden Quest,Outlet Stores,2002-12-13,59969 Candice Mountain Suite 062 Donaldberg  NH 64728,Myersfort,Kentucky,Cayman Islands,North,Jesse
The Harmony Vault,SMB,2003-07-30,Unit 5034 Box 1608 DPO AP 70520,North Peter,New Hampshire,Madagascar,West,Steven
The Majestic Emporium,Outlet Stores,2016-04-17,2659 Lisa Meadow Suite 002 North Claireshire  NH 18350,Michaelshire,Kentucky,New Caledonia,West,Alex
The Vintage Emporium,Exclusive,2000-02-02,5882 Herrera Port Wardtown  NY 56392,Lindamouth,Maine,Bahrain,West,Sandra
The Cozy Deals,MBO,1978-05-18,1887 Daniel Grove Suite 261 Lake Scottton  PW 94443,Dominguezfort,New York,Guatemala,East,Alfred
The Harmony Creations,MBO,2004-05-03,047 Michael Underpass North Haleyshire  OH 77914,Port Gabrielaville,Louisiana,United States Minor Outlying Islands,South,Seth
The Vintage Closet,MBO,2000-08-04,USNS Parker FPO AP 11492,Port Kimberly,Louisiana,El Salvador,West,Jason
The Dapper Marketplace,Exclusive,2012-08-05,8006 Walker Mission Kennethhaven  AL 32714,Kimmouth,Arkansas,Nicaragua,West,Katie
The Vintage Emporium,MBO,1979-05-24,61062 Adam Shoals East Joseph  ID 26753,Davisfurt,North Dakota,Greenland,East,Diane
The Whimsy Quest,Outlet Stores,1979-05-10,Unit 8404 Box 3531 DPO AA 83283,Elizabethhaven,Nebraska,San Marino,East,Jose
The Whimsy Enclave,Outlet Stores,1981-01-25,192 Sharon Mill Lake Carmen  GU 89834,South Jamesmouth,Wisconsin,Rwanda,East,Amber
The Shimmer Deals,Outlet Stores,1976-05-16,57237 Michael Course Paynechester  FL 68992,Alisontown,Utah,Palau,South,Crystal
The Dapper Cabinet,Outlet Stores,1986-11-06,762 James Coves Suite 414 Dianatown  WI 56876,Leachmouth,Montana,Palestinian Territory,West,Linda
The Whimsy Closet,Exclusive,1978-05-16,540 Nancy Locks Hensleyshire  CA 32415,East Christopher,Nebraska,United Arab Emirates,West,Melinda
The Serene Nook,MBO,2012-05-16,35033 Corey Bypass South Edwin  ND 37183,East Richardberg,Tennessee,United States Minor Outlying Islands,South,David
The Serene Perfection,MBO,1988-12-05,069 Jared Springs Brianafurt  NC 45570,Robinsonport,Illinois,Uganda,South,Richard
The Serene Essentials,SMB,2009-12-13,731 Susan Plains Suite 658 North Benjaminview  MI 74029,South Sarahside,Florida,Benin,South,Justin
The Whimsy Creations,SMB,1987-04-20,077 Burke Via Apt. 904 South Steve  CO 53950,New Christine,Alabama,Tunisia,East,Shelly
The Timeless Marvels,Exclusive,1992-04-22,786 Horton Ways Suite 567 Jamesstad  OR 36575,Port Phillip,Alaska,Belize,East,Justin
The Blissful Treasures,SMB,2016-10-24,44480 Richard Green Scottstad  ND 84010,Markmouth,Missouri,Netherlands,West,Victor
The Luxe Merchant,Outlet Stores,2016-03-19,6770 Estes Motorway Suite 376 Snyderside  IL 92234,Aaronborough,New Mexico,Gambia,West,Brandon
The Dapper Quest,SMB,2018-05-16,32386 Mitchell Circles Lake Anthony  MD 53521,Kaitlinbury,Hawaii,Reunion,East,Matthew
The Cozy Shoppe,MBO,1984-06-29,52445 Blake Canyon Daniellestad  PA 60801,Ronaldbury,Louisiana,Namibia,East,Brian
The Elegant Shoppe,SMB,1989-02-25,734 Linda Islands Danielfurt  NH 18573,Fieldshaven,New York,Philippines,East,Gregory
The Purely Marvels,Outlet Stores,2023-08-06,37512 Welch Locks Kathyview  NJ 97454,East Andrewland,Alabama,Thailand,South,Christine
The Blissful Cabinet,MBO,2005-03-17,93577 Fischer Haven Lake Susanhaven  MT 45117,East Ruthstad,New York,Montserrat,West,Michael
